OSCAR 31                
1 19420U 88074B   26061.81215493  .00000090  00000+0  13954-3 0  9994
2 19420  90.0424  20.8765 0094968  13.3208  50.5818 13.42596565837256
