[{"OBJECT_NAME":"OSCAR 31","OBJECT_ID":"1988-074B","EPOCH":"2026-03-02T19:29:30.185952","MEAN_MOTION":13.42596565,"ECCENTRICITY":0.0094968,"INCLINATION":90.0424,"RA_OF_ASC_NODE":20.8765,"ARG_OF_PERICENTER":13.3208,"MEAN_ANOMALY":50.5818,"EPHEMERIS_TYPE":0,"CLASSIFICATION_TYPE":"U","NORAD_CAT_ID":19420,"ELEMENT_SET_NO":999,"REV_AT_EPOCH":83725,"BSTAR":0.00013954,"MEAN_MOTION_DOT":9.0e-7,"MEAN_MOTION_DDOT":0}]
